{
  "type": "FeatureCollection",
  "features": [
    {
      "type": "Feature",
      "properties": {
        "name": "Cancha Volleyball"
      },
      "geometry": {
        "coordinates": [
          [
            [
              -97.45259850131623,
              25.841564970837055
            ],
            [
              -97.45266030315692,
              25.841509348994464
            ],
            [
              -97.45255355452322,
              25.841403161767687
            ],
            [
              -97.45248051598439,
              25.84145878366023
            ]
          ]
        ],
        "type": "Polygon"
      }
    },
    {
      "type": "Feature",
      "properties": {},
      "geometry": {
        "coordinates": [
          [
            -97.4529113847554,
            25.841366936022723
          ],
          [
            -97.45324395951084,
            25.841384543004907
          ],
          [
            -97.45327556163731,
            25.841399441218172
          ],
          [
            -97.45329211513199,
            25.841426528873583
          ],
          [
            -97.45326352273179,
            25.841935775646107
          ],
          [
            -97.45327857136358,
            25.841962863178637
          ],
          [
            -97.45331017348956,
            25.841968280684455
          ],
          [
            -97.45363522392961,
            25.841987241953078
          ]
        ],
        "type": "LineString"
      }
    },
    {
      "type": "Feature",
      "properties": {},
      "geometry": {
        "coordinates": [
          [
            -97.4532767605527,
            25.84167796267674
          ],
          [
            -97.4521302721707,
            25.84161592791901
          ]
        ],
        "type": "LineString"
      }
    },
    {
      "type": "Feature",
      "properties": {},
      "geometry": {
        "coordinates": [
          [
            -97.45257648595455,
            25.841640977397674
          ],
          [
            -97.45254151517535,
            25.842230584720795
          ]
        ],
        "type": "LineString"
      }
    },
    {
      "type": "Feature",
      "properties": {},
      "geometry": {
        "coordinates": [
          [
            -97.4542609618402,
            25.843934773588586
          ],
          [
            -97.4538572868631,
            25.843911044444596
          ],
          [
            -97.45358136584456,
            25.84400000056327
          ]
        ],
        "type": "LineString"
      }
    },
    {
      "type": "Feature",
      "properties": {},
      "geometry": {
        "coordinates": [
          [
            -97.4540620856845,
            25.843922996389452
          ],
          [
            -97.45403571952595,
            25.843905813214718
          ],
          [
            -97.45402117268009,
            25.843880447572985
          ],
          [
            -97.45402662774701,
            25.843695523692404
          ],
          [
            -97.45361980185194,
            25.84333391430593
          ],
          [
            -97.45356671737868,
            25.843306351537336
          ],
          [
            -97.45472436382403,
            25.84335367320969
          ]
        ],
        "type": "LineString"
      }
    },
    {
      "type": "Feature",
      "properties": {},
      "geometry": {
        "coordinates": [
          [
            -97.45360129563969,
            25.843675633258584
          ],
          [
            -97.45443941782702,
            25.843709627247648
          ]
        ],
        "type": "LineString"
      }
    },
    {
      "type": "Feature",
      "properties": {},
      "geometry": {
        "coordinates": [
          [
            -97.45427403927606,
            25.843707789734935
          ],
          [
            -97.45424262155692,
            25.844378903319722
          ],
          [
            -97.4542293504383,
            25.84439452208133
          ],
          [
            -97.45420587076755,
            25.84440370958663
          ],
          [
            -97.45360254531244,
            25.84437706581855
          ],
          [
            -97.45350454320783,
            25.844330209521672
          ],
          [
            -97.4536592209904,
            25.84157450261334
          ],
          [
            -97.45373117940437,
            25.841504108279068
          ]
        ],
        "type": "LineString"
      }
    },
    {
      "type": "Feature",
      "properties": {},
      "geometry": {
        "coordinates": [
          [
            -97.45424007905885,
            25.844393823783705
          ],
          [
            -97.45423069317842,
            25.844678209691068
          ],
          [
            -97.45437461000638,
            25.84471199806987
          ]
        ],
        "type": "LineString"
      }
    },
    {
      "type": "Feature",
      "properties": {},
      "geometry": {
        "coordinates": [
          [
            -97.45462058382913,
            25.84420542001665
          ],
          [
            -97.45426079175971,
            25.84418007862446
          ]
        ],
        "type": "LineString"
      }
    },
    {
      "type": "Feature",
      "properties": {},
      "geometry": {
        "coordinates": [
          [
            -97.45443872003632,
            25.843709507916756
          ],
          [
            -97.4546182142439,
            25.843716361228857
          ],
          [
            -97.45460407227573,
            25.843870071123234
          ]
        ],
        "type": "LineString"
      }
    },
    {
      "type": "Feature",
      "properties": {},
      "geometry": {
        "coordinates": [
          [
            -97.45426953252482,
            25.843563671214525
          ],
          [
            -97.45428573864554,
            25.84334223952027
          ]
        ],
        "type": "LineString"
      }
    },
    {
      "type": "Feature",
      "properties": {},
      "geometry": {
        "coordinates": [
          [
            -97.45457139034882,
            25.84334469728141
          ],
          [
            -97.4545758102001,
            25.843265140884654
          ],
          [
            -97.4544579475043,
            25.843257185241683
          ],
          [
            -97.45444910780222,
            25.84334602322066
          ]
        ],
        "type": "LineString"
      }
    },
    {
      "type": "Feature",
      "properties": {},
      "geometry": {
        "coordinates": [
          [
            -97.4545758102001,
            25.843265140884654
          ],
          [
            -97.4547820699176,
            25.84327574840715
          ],
          [
            -97.45477912335025,
            25.843322156307366
          ],
          [
            -97.4549146654502,
            25.84332878600648
          ]
        ],
        "type": "LineString"
      }
    },
    {
      "type": "Feature",
      "properties": {},
      "geometry": {
        "coordinates": [
          [
            -97.45436289244321,
            25.84334050933448
          ],
          [
            -97.45440130607595,
            25.842582086765688
          ],
          [
            -97.45449974100997,
            25.84258640827551
          ],
          [
            -97.45448533589746,
            25.842705249735943
          ],
          [
            -97.45431967710606,
            25.84269012446569
          ],
          [
            -97.45431967710606,
            25.842573443745508
          ],
          [
            -97.45419723365146,
            25.84238113638142
          ],
          [
            -97.45419593354934,
            25.842343680691144
          ],
          [
            -97.45450359175292,
            25.84236311166633
          ],
          [
            -97.45451978428996,
            25.84210370788243
          ],
          [
            -97.45449063772344,
            25.842085248415458
          ],
          [
            -97.45412684539136,
            25.842068732047565
          ],
          [
            -97.4541555690548,
            25.84167586563231
          ],
          [
            -97.45409079890669,
            25.841538876391994
          ]
        ],
        "type": "LineString"
      }
    },
    {
      "type": "Feature",
      "properties": {},
      "geometry": {
        "coordinates": [
          [
            -97.45413747565694,
            25.841849586089694
          ],
          [
            -97.45365298721947,
            25.841827482682476
          ]
        ],
        "type": "LineString"
      }
    },
    {
      "type": "Feature",
      "properties": {},
      "geometry": {
        "coordinates": [
          [
            -97.45412854499428,
            25.842068610537595
          ],
          [
            -97.45390751109893,
            25.842061577648707
          ],
          [
            -97.45390081310217,
            25.84206660114056
          ]
        ],
        "type": "LineString"
      }
    },
    {
      "type": "Feature",
      "properties": {},
      "geometry": {
        "coordinates": [
          [
            -97.45391867442684,
            25.841840543787498
          ],
          [
            -97.45389411510541,
            25.842330836521782
          ]
        ],
        "type": "LineString"
      }
    },
    {
      "type": "Feature",
      "properties": {},
      "geometry": {
        "coordinates": [
          [
            -97.45362226495963,
            25.84231706368294
          ],
          [
            -97.45419494368859,
            25.842344190478713
          ],
          [
            -97.454192711023,
            25.842464753940817
          ],
          [
            -97.45406448992703,
            25.842686082227246
          ],
          [
            -97.45403499063265,
            25.843327390686838
          ]
        ],
        "type": "LineString"
      }
    },
    {
      "type": "Feature",
      "properties": {},
      "geometry": {
        "coordinates": [
          [
            -97.45429351984166,
            25.84277659359347
          ],
          [
            -97.45430107917662,
            25.8426990353462
          ],
          [
            -97.452611345629,
            25.842607651527103
          ],
          [
            -97.45258866762454,
            25.842913802445437
          ],
          [
            -97.45324481788758,
            25.84295326183957
          ]
        ],
        "type": "LineString"
      }
    },
    {
      "type": "Feature",
      "properties": {},
      "geometry": {
        "coordinates": [
          [
            -97.4529726818336,
            25.842628061613766
          ],
          [
            -97.45298628863637,
            25.84243756734196
          ],
          [
            -97.45300896664084,
            25.842411714524445
          ],
          [
            -97.45360917782608,
            25.84243756734196
          ]
        ],
        "type": "LineString"
      }
    },
    {
      "type": "Feature",
      "properties": {},
      "geometry": {
        "coordinates": [
          [
            -97.452816709335,
            25.841630543055615
          ],
          [
            -97.45283284710189,
            25.84131464503662
          ],
          [
            -97.45260691836253,
            25.841311014019468
          ]
        ],
        "type": "LineString"
      }
    },
    {
      "type": "Feature",
      "properties": {},
      "geometry": {
        "coordinates": [
          [
            -97.4528156903323,
            25.84165459171456
          ],
          [
            -97.45281772036817,
            25.841626577145774
          ]
        ],
        "type": "LineString"
      }
    },
    {
      "type": "Feature",
      "properties": {},
      "geometry": {
        "coordinates": [
          [
            -97.45283409278399,
            25.841316170409186
          ],
          [
            -97.45283724602434,
            25.84107068914608
          ],
          [
            -97.45277418122554,
            25.84106927017801
          ]
        ],
        "type": "LineString"
      }
    },
    {
      "type": "Feature",
      "properties": {},
      "geometry": {
        "coordinates": [
          [
            -97.45363719727206,
            25.841986367372755
          ],
          [
            -97.45376682768658,
            25.841993230155964
          ],
          [
            -97.453909802408,
            25.84206357366216
          ]
        ],
        "type": "LineString"
      }
    },
    {
      "type": "Feature",
      "properties": {},
      "geometry": {
        "coordinates": [
          [
            -97.45338179562386,
            25.842649450882774
          ],
          [
            -97.45323310191336,
            25.842422980079476
          ]
        ],
        "type": "LineString"
      }
    },
    {
      "type": "Feature",
      "properties": {},
      "geometry": {
        "coordinates": [
          [
            -97.45297640785626,
            25.842622459575324
          ],
          [
            -97.45295278104946,
            25.84297863107237
          ]
        ],
        "type": "LineString"
      }
    },
    {
      "type": "Feature",
      "properties": {},
      "geometry": {
        "coordinates": [
          [
            -97.45359747078804,
            25.842836427118655
          ],
          [
            -97.45405780447061,
            25.84285630501047
          ],
          [
            -97.45405431709443,
            25.842900245601555
          ],
          [
            -97.45438445539202,
            25.842915938665882
          ],
          [
            -97.45438561785097,
            25.84292640070784
          ]
        ],
        "type": "LineString"
      }
    },
    {
      "type": "Feature",
      "properties": {},
      "geometry": {
        "coordinates": [
          [
            [
              -97.4535460025416,
              25.84304006349622
            ],
            [
              -97.45356468186621,
              25.842710843019987
            ],
            [
              -97.4533109543711,
              25.842696833617424
            ],
            [
              -97.45329694487741,
              25.843030256941972
            ],
            [
              -97.4535460025416,
              25.84304006349622
            ]
          ]
        ],
        "type": "Polygon"
      }
    }
  ]
}
